satname,norad_id,inclination_deg,eccentricity,mean_motion_rev_per_day,perigee_km,apogee_km,l1,l2
STARLINK-1184,45098,53.0548,0.0001574,15.07991858,541.2477521184865,543.4263173446197,1 45098U 20006BG  26018.53550123  .00015123  00000+0  98867-3 0  9997,2 45098  53.0548 111.5567 0001574   0.4244 359.6747 15.07991858329468
STARLINK-1193,45100,53.0608,0.0001147,15.33961135,463.2231564276253,464.79274447925854,1 45100U 20006BJ  26018.66668981  .00847961  00000+0  23448-1 0  9991,2 45100  53.0608 109.6157 0001147  84.0371 263.6585 15.33961135  5747
STARLINK-1143,45179,53.0485,0.0004505,15.5226864,407.0458931846151,413.1620983217881,1 45179U 20012B   26018.24636776  .00029984  00000+0  49072-3 0  9995,2 45179  53.0485 214.5787 0004505 146.7486 213.3807 15.52268640328069
STARLINK-1202,45183,53.0862,9.03e-05,15.14797334,520.9708595689917,522.2169509704845,1 45183U 20012F   26018.66668981  .00113704  00000+0  59739-2 0  9993,2 45183  53.0862 271.0758 0000903 129.2397 211.0287 15.14797334  5798
STARLINK-1216,45185,53.0866,6.12e-05,15.14871848,520.9453962864045,521.7898956550707,1 45185U 20012H   26018.66668981  .00109030  00000+0  57207-2 0  9990,2 45185  53.0866 271.0568 0000612  70.3235 318.4029 15.14871848  5741
STARLINK-1225,45187,53.0577,0.0001767,15.07743692,541.8734122932347,544.3193761747561,1 45187U 20012K   26018.62490597  .00266003  00000+0  16600-1 0  9999,2 45187  53.0577 271.3561 0001767 123.8994 236.2164 15.07743692327286
STARLINK-1230,45189,53.0613,0.0002207,15.09135086,537.3149989137582,540.3681532572427,1 45189U 20012M   26018.66668981  .00061005  00000+0  37872-2 0  9999,2 45189  53.0613 271.1741 0002207  90.1254 115.6169 15.09135086  5497
STARLINK-1234,45190,53.0483,0.0014154,15.50785292,404.81780262407756,424.04620696284564,1 45190U 20012N   26017.92196232  .00120373  00000+0  20229-2 0  9996,2 45190  53.0483 211.2752 0014154 133.4927 226.7260 15.50785292327975
STARLINK-1269,45197,53.0734,0.0002472,15.11419731,530.1612474440371,533.5775546087043,1 45197U 20012V   26018.66668981  .00064812  00000+0  37752-2 0  9994,2 45197  53.0734 271.1386 0002472  89.3101  74.8306 15.11419731  5696
STARLINK-1154,45198,53.0512,0.0001412,15.38030829,450.96848071270506,452.8972924486761,1 45198U 20012W   26018.66668981  .00067142  00000+0  17627-2 0  9993,2 45198  53.0512 247.1871 0001412 114.9415 325.7194 15.38030829  5643
STARLINK-1199,45201,53.0543,0.0001425,15.06403458,546.2140990273392,548.1878203458491,1 45201U 20012Z   26018.37713046  .00001328  00000+0  10805-3 0  9995,2 45201  53.0543 252.4801 0001425  92.0155 268.0997 15.06403458327537
STARLINK-1209,45206,53.0489,0.0015298,15.42560256,428.12804653289186,448.9844011205114,1 45206U 20012AE  26018.52352379  .00024914  00000+0  57023-3 0  9994,2 45206  53.0489 212.8803 0015298 131.7853 228.4462 15.42560256327157
STARLINK-1210,45207,53.0187,0.0006028,15.81660592,321.7031378636011,329.78533708349914,1 45207U 20012AF  26018.66668981  .00181268  00000+0  86960-3 0  9997,2 45207  53.0187 155.9575 0006028 302.9664  29.4315 15.81660592  5931
STARLINK-1231,45212,53.0465,0.0002327,15.17244034,512.5704221260658,515.7781037878449,1 45212U 20012AL  26018.34618542  .00007617  00000+0  39333-3 0  9993,2 45212  53.0465 246.2587 0002327 128.0397 232.0806 15.17244034327573
STARLINK-1271,45217,53.0546,0.0001463,15.06398256,546.2037237762361,548.2300823282685,1 45217U 20012AR  26018.36239071 -.00000267  00000+0  94556-6 0  9992,2 45217  53.0546 252.5467 0001463  90.3397 269.7760 15.06398256327532
STARLINK-1191,45222,53.0951,0.0001533,15.16384364,515.7219565107334,517.835937740123,1 45222U 20012AW  26018.66668981  .00906084  00000+0  42681-1 0  9995,2 45222  53.0951 230.9983 0001533  95.1900 166.6001 15.16384364  5747
STARLINK-1212,45223,53.0528,0.0002348,15.40012462,444.47017835728093,447.6748271397719,1 45223U 20012AX  26018.58572754  .00074184  00000+0  18227-2 0  9996,2 45223  53.0528 228.6529 0002348 101.2605 258.8663 15.40012462327899
STARLINK-1215,45225,53.1355,9.91e-05,15.24994761,490.1204537409476,491.4818772853523,1 45225U 20012AZ  26018.66668981  .01397399  00000+0  50798-1 0  9990,2 45225  53.1355 230.5347 0000991  97.1939 200.9905 15.24994761  5540
STARLINK-1221,45227,53.0666,0.0003468,15.39761194,444.44800110773485,449.1817877417079,1 45227U 20012BB  26018.64579258  .00015806  00000+0  40239-3 0  9998,2 45227  53.0666 146.3955 0003468 189.1140 170.9801 15.39761194328999
STARLINK-1222,45228,53.0552,0.0002066,15.43986407,432.9504822814042,435.7654051921563,1 45228U 20012BC  26018.11802320  .00243210  00000+0  51000-2 0  9999,2 45228  53.0552 224.5514 0002066 109.7497 250.3732 15.43986407327794
STARLINK-1226,45229,53.1045,0.0002503,15.18492248,508.67251828441204,512.1209182637804,1 45229U 20012BD  26018.66668981  .01472238  00000+0  64424-1 0  9991,2 45229  53.1045 230.9121 0002503  81.4187  27.6780 15.18492248  5581
STARLINK-1227,45230,53.0937,0.0001778,15.16547414,515.0589103273533,517.5105666975669,1 45230U 20012BE  26018.66668981  .00026119  00000+0  13339-2 0  9995,2 45230  53.0937 230.9462 0001778  87.5048  24.2583 15.16547414  5742
STARLINK-1246,45235,53.095,0.0001346,15.16241037,516.285333814084,518.1415621546812,1 45235U 20012BK  26018.66668981  .00071104  00000+0  36132-2 0  9990,2 45235  53.0950 270.8883 0001346  88.1934 334.3558 15.16241037  5697
STARLINK-1270,45237,53.0508,0.0003464,15.3916146,446.2228961097262,450.9524509635521,1 45237U 20012BM  26017.99103178  .00073364  00000+0  18537-2 0  9998,2 45237  53.0508 228.2262 0003464 125.7793 234.3533 15.39161460327842
STARLINK-1279,45360,53.0512,0.000684,15.47165455,420.369372352121,429.67609486769925,1 45360U 20019A   26018.60518474  .00130746  00000+0  24978-2 0  9994,2 45360  53.0512 339.8565 0006840  43.2053 316.9489 15.47165455322897
STARLINK-1301,45361,53.0485,0.0008916,15.5262606,403.0107043039752,415.1136378658548,1 45361U 20019B   26018.66668981  .00156864  00000+0  24604-2 0  9995,2 45361  53.0485 347.3220 0008916  33.4296  58.6327 15.52626060  5962
STARLINK-1262,45366,53.0548,0.0001557,15.06397221,546.1417970895154,548.2983532827293,1 45366U 20019G   26018.40109442 -.00002192  00000+0 -12830-3 0  9999,2 45366  53.0548  32.3734 0001557  85.0653 275.0514 15.06397221322151
STARLINK-1273,45367,53.0558,0.0002321,15.14907487,519.6580859693149,522.8607857948509,1 45367U 20019H   26018.56652593  .00157784  00000+0  82070-2 0  9995,2 45367  53.0558  31.0427 0002321 112.4398 247.6841 15.14907487322180
STARLINK-1276,45368,53.0556,0.0001402,15.06394669,546.256960575136,548.1988328921798,1 45368U 20019J   26018.32737486 -.00000358  00000+0 -51621-5 0  9992,2 45368  53.0556  32.7027 0001402  83.7782 276.3367 15.06394669322140
STARLINK-1277,45369,53.0578,0.0001549,15.3161272,469.9392533692853,472.06111606911145,1 45369U 20019K   26018.66668981  .01028071  00000+0  30516-1 0  9990,2 45369  53.0578  30.5284 0001549  84.2208 294.1160 15.31612720  5840
STARLINK-1281,45370,53.0538,0.0001534,15.0640018,546.1486578800968,548.2733546484196,1 45370U 20019L   26018.31631301 -.00000546  00000+0 -17781-4 0  9990,2 45370  53.0538  32.7539 0001534  86.2158 273.9007 15.06400180322142
STARLINK-1300,45374,53.0567,0.0001556,15.0639202,546.1584275556879,548.3136036381429,1 45374U 20019Q   26018.33843585 -.00000284  00000+0 -17391-6 0  9993,2 45374  53.0567  32.6544 0001556  92.3432 267.7735 15.06392020322142
STARLINK-1302,45375,53.0555,0.0001457,15.31104758,471.51681549014575,473.51309546997254,1 45375U 20019R   26018.66668981 -.00024249  00000+0 -78663-3 0  9998,2 45375  53.0555  29.7239 0001457  86.6036 205.0575 15.31104758  5843
STARLINK-1304,45376,53.0553,0.0002248,15.40161774,444.0974608119377,447.1654271043408,1 45376U 20019S   26018.28651855  .00091254  00000+0  22239-2 0  9994,2 45376  53.0553  29.1745 0002248  53.8087 306.3125 15.40161774322185
STARLINK-1305,45377,53.0507,0.0005155,15.44009836,430.7772221734658,437.8008334081169,1 45377U 20019T   26018.35474421  .00018693  00000+0  41157-3 0  9992,2 45377  53.0507  13.1162 0005155   3.9931 356.1115 15.44009836322428
STARLINK-1319,45379,53.0513,0.0005212,15.48401041,417.8591622313197,424.947002813341,1 45379U 20019V   26018.66668981  .00080102  00000+0  14791-2 0  9991,2 45379  53.0513  11.5038 0005212   8.2716  18.1410 15.48401041  5805
STARLINK-1266,45383,53.0534,9.08e-05,15.3215149,468.77270168089854,470.01621339358644,1 45383U 20019Z   26018.66668981  .00056084  00000+0  17801-2 0  9993,2 45383  53.0534   9.9826 0000908  98.7790 209.7821 15.32151490  5809
STARLINK-1267,45384,53.0556,0.0005936,15.40549014,440.4379818446987,448.537802116457,1 45384U 20019AA  26018.36359190  .00110259  00000+0  26433-2 0  9996,2 45384  53.0556   6.7301 0005936  54.6638 305.4920 15.40549014322500
STARLINK-1272,45386,53.0497,0.0006003,15.45946759,424.51154521210356,432.68371080649194,1 45386U 20019AC  26018.66668981  .00110774  00000+0  22143-2 0  9998,2 45386  53.0497 350.2607 0006003  20.2595 318.2180 15.45946759  5903
STARLINK-1274,45387,53.0326,0.0008827,15.40068068,439.8846528634631,451.93182232591334,1 45387U 20019AD  26018.60756443  .00095459  00000+0  23293-2 0  9993,2 45387  53.0326 341.0467 0008827  64.5793 295.6123 15.40068068322881
STARLINK-1280,45388,53.0495,0.0005736,15.54111928,400.8447187030906,408.62602989088464,1 45388U 20019AE  26018.66668981  .00114034  00000+0  17075-2 0  9991,2 45388  53.0495   6.2017 0005736  12.0392 259.2520 15.54111928  5917
STARLINK-1283,45389,53.0514,0.0010639,15.45877907,421.55783703929956,436.0416370283592,1 45389U 20019AF  26018.66668981  .00128836  00000+0  25707-2 0  9998,2 45389  53.0514 350.3910 0010639  60.7423  24.9687 15.45877907  5948
STARLINK-1284,45390,53.059,0.0001436,15.33318169,464.9377536466591,466.9033669779801,1 45390U 20019AG  26018.66668981  .00837917  00000+0  23667-1 0  9999,2 45390  53.0590   9.8133 0001436  80.7112 295.0808 15.33318169  5649
